{
  "norad_id": 58872,
  "name": "STARLINK-31215",
  "history": [
    {
      "epoch": "2026-03-28T20:10:28.789536Z",
      "apogee_km": 483.8988491080654,
      "perigee_km": 482.2045471709471,
      "latitude_deg": 5.644068938953825e-05,
      "longitude_deg": 11.689523888754259,
      "height_km": 482.7999264687511,
      "semi_major_axis_km": 6861.188698139506,
      "eccentricity": 0.00012347,
      "inclination_deg": 42.9997,
      "raan_deg": 140.5647,
      "arg_perigee_deg": 271.9143,
      "mean_anomaly_deg": 88.1568,
      "mean_motion_rev_day": 15.27579131
    },
    {
      "epoch": "2026-03-29T04:01:15.583872Z",
      "apogee_km": 483.7191328967192,
      "perigee_km": 482.32494537996627,
      "latitude_deg": -1.4138157698004502e-05,
      "longitude_deg": -108.17356515238151,
      "height_km": 482.7049514909053,
      "semi_major_axis_km": 6861.159039138342,
      "eccentricity": 0.0001016,
      "inclination_deg": 43.0,
      "raan_deg": 138.7189,
      "arg_perigee_deg": 277.7055,
      "mean_anomaly_deg": 82.3681,
      "mean_motion_rev_day": 15.27589036
    },
    {
      "epoch": "2026-03-30T03:33:36.736704Z",
      "apogee_km": 483.5781304123375,
      "perigee_km": 482.5393453776196,
      "latitude_deg": 2.831285730140749e-05,
      "longitude_deg": -107.76537705556412,
      "height_km": 482.70549427363164,
      "semi_major_axis_km": 6861.195737894978,
      "eccentricity": 7.57e-05,
      "inclination_deg": 43.0015,
      "raan_deg": 133.1819,
      "arg_perigee_deg": 284.443,
      "mean_anomaly_deg": 75.6338,
      "mean_motion_rev_day": 15.2757678
    },
    {
      "epoch": "2026-03-30T03:33:36.737568Z",
      "apogee_km": 483.5784048601663,
      "perigee_km": 482.5390709297908,
      "latitude_deg": 3.136980167061482e-05,
      "longitude_deg": -107.76537740555092,
      "height_km": 482.7054258305037,
      "semi_major_axis_km": 6861.195737894978,
      "eccentricity": 7.574e-05,
      "inclination_deg": 43.0015,
      "raan_deg": 133.1819,
      "arg_perigee_deg": 284.443,
      "mean_anomaly_deg": 75.6338,
      "mean_motion_rev_day": 15.2757678
    },
    {
      "epoch": "2026-03-30T11:24:23.743584Z",
      "apogee_km": 483.72946704589685,
      "perigee_km": 482.39551264108195,
      "latitude_deg": -2.0162104813310156e-05,
      "longitude_deg": 132.37046980958974,
      "height_km": 482.81529888115074,
      "semi_major_axis_km": 6861.199489843489,
      "eccentricity": 9.721e-05,
      "inclination_deg": 43.0018,
      "raan_deg": 131.3359,
      "arg_perigee_deg": 272.0391,
      "mean_anomaly_deg": 88.0349,
      "mean_motion_rev_day": 15.27575527
    },
    {
      "epoch": "2026-03-30T19:15:10.755648Z",
      "apogee_km": 483.7247405465041,
      "perigee_km": 482.4088988779595,
      "latitude_deg": 1.6519594350482054e-05,
      "longitude_deg": 12.505985824827304,
      "height_km": 482.83073497983776,
      "semi_major_axis_km": 6861.203819712231,
      "eccentricity": 9.589e-05,
      "inclination_deg": 43.0019,
      "raan_deg": 129.4895,
      "arg_perigee_deg": 271.0991,
      "mean_anomaly_deg": 88.9751,
      "mean_motion_rev_day": 15.27574081
    },
    {
      "epoch": "2026-03-31T10:56:44.256192Z",
      "apogee_km": 483.59765907659676,
      "perigee_km": 482.49081331957314,
      "latitude_deg": -1.4861290969767171e-05,
      "longitude_deg": 132.7779938445133,
      "height_km": 482.8349178148741,
      "semi_major_axis_km": 6861.181236198085,
      "eccentricity": 8.066e-05,
      "inclination_deg": 43.001,
      "raan_deg": 125.7956,
      "arg_perigee_deg": 268.5106,
      "mean_anomaly_deg": 91.5653,
      "mean_motion_rev_day": 15.27581623
    }
  ]
}